{
  "norad_id": 63724,
  "name": "KUIPER-00008",
  "history": [
    {
      "epoch": "2026-03-27T07:19:45.136128Z",
      "apogee_km": 641.2913526989296,
      "perigee_km": 638.7185018683876,
      "latitude_deg": -5.429363999095681e-08,
      "longitude_deg": 74.85434335420273,
      "height_km": 641.2979942355278,
      "semi_major_axis_km": 7018.141927283658,
      "eccentricity": 0.0001833,
      "inclination_deg": 51.9042,
      "raan_deg": 9.5345,
      "arg_perigee_deg": 115.2707,
      "mean_anomaly_deg": 244.8444,
      "mean_motion_rev_day": 14.76622705
    }
  ]
}